[{"OBJECT_NAME":"STARLINK-35815","OBJECT_ID":"2025-268W","EPOCH":"2026-03-08T03:31:45.128640","MEAN_MOTION":15.27625122,"ECCENTRICITY":0.00012658,"INCLINATION":42.9995,"RA_OF_ASC_NODE":355.788,"ARG_OF_PERICENTER":285.0834,"MEAN_ANOMALY":74.9878,"EPHEMERIS_TYPE":0,"CLASSIFICATION_TYPE":"U","NORAD_CAT_ID":66577,"ELEMENT_SET_NO":999,"REV_AT_EPOCH":1772,"BSTAR":0.0018510755,"MEAN_MOTION_DOT":0.000511,"MEAN_MOTION_DDOT":0},{"OBJECT_NAME":"PUCP-SAT 1","OBJECT_ID":"2013-066AC","EPOCH":"2026-03-09T22:02:13.763904","MEAN_MOTION":15.29426022,"ECCENTRICITY":0.00136836,"INCLINATION":97.5787,"RA_OF_ASC_NODE":61.0032,"ARG_OF_PERICENTER":300.1183,"MEAN_ANOMALY":59.87,"EPHEMERIS_TYPE":0,"CLASSIFICATION_TYPE":"U","NORAD_CAT_ID":39442,"ELEMENT_SET_NO":999,"REV_AT_EPOCH":66907,"BSTAR":0.00088755185,"MEAN_MOTION_DOT":0.00025373,"MEAN_MOTION_DDOT":0}]
